NORAD_CAT_ID,OBJECT_NAME,OBJECT_TYPE,EPOCH,MEAN_MOTION,ECCENTRICITY,INCLINATION,RA_OF_ASC_NODE,ARG_OF_PERICENTER,MEAN_ANOMALY,BSTAR,MEAN_MOTION_DOT,MEAN_MOTION_DDOT,TLE_LINE0,TLE_LINE1,TLE_LINE2,SEMIMAJOR_AXIS,PERIOD,APOGEE,PERIGEE,DECAYED
50804.0,STARLINK-3323,PAYLOAD,2024-04-27 00:17:46,15.08853963,0.0001353,53.2178,339.2868,95.4474,264.6672,0.0002664,3.956e-05,0.0,0 STARLINK-3323,1 50804U 22001B   24118.01234932  .00003956  00000-0  26640-3 0  9996,2 50804  53.2178 339.2868 0001353  95.4474 264.6672 15.08853963128887,6917.838,95.437,540.639,538.767,0.0
50804.0,STARLINK-3323,PAYLOAD,2024-04-27 08:14:42,15.08858967,0.0001313,53.2179,337.7995,100.9953,259.1187,0.0003289,4.953e-05,0.0,0 STARLINK-3323,1 50804U 22001B   24118.34354449  .00004953  00000-0  32890-3 0  9990,2 50804  53.2179 337.7995 0001313 100.9953 259.1187 15.08858967127688,6917.822,95.436,540.596,538.779,0.0
50804.0,STARLINK-3323,PAYLOAD,2024-04-27 20:57:48,15.08832876,0.0001385,53.2178,335.4222,99.1844,260.9305,-0.00017944,-3.142e-05,0.0,0 STARLINK-3323,1 50804U 22001B   24118.87347873 -.00003142  00000-0 -17944-3 0  9995,2 50804  53.2178 335.4222 0001385  99.1844 260.9305 15.08832876129014,6917.902,95.438,540.725,538.809,0.0
50804.0,STARLINK-3323,PAYLOAD,2024-04-28 00:08:34,15.08834364,0.000147,53.2174,334.8272,100.2132,259.9026,-0.00013783,-2.481e-05,0.0,0 STARLINK-3323,1 50804U 22001B   24119.00595862 -.00002481  00000-0 -13783-3 0  9996,2 50804  53.2174 334.8272 0001470 100.2132 259.9026 15.08834364127781,6917.898,95.438,540.78,538.746,0.0
50804.0,STARLINK-3323,PAYLOAD,2024-04-28 20:48:35,15.08837826,0.0001301,53.2151,330.9648,79.7462,280.3677,4.4141e-05,4.15e-06,0.0,0 STARLINK-3323,1 50804U 22001B   24119.86708050  .00000415  00000-0  44141-4 0  9991,2 50804  53.2151 330.9648 0001301  79.7462 280.3677 15.08837826127910,6917.887,95.438,540.652,538.852,0.0
50804.0,STARLINK-3323,PAYLOAD,2024-04-28 23:59:21,15.08839537,0.0001274,53.2149,330.3693,83.6482,276.4655,0.00012295,1.669e-05,0.0,0 STARLINK-3323,1 50804U 22001B   24119.99955987  .00001669  00000-0  12295-3 0  9994,2 50804  53.2149 330.3693 0001274  83.6482 276.4655 15.08839537129180,6917.882,95.438,540.628,538.865,0.0
50804.0,STARLINK-3323,PAYLOAD,2024-04-29 20:39:23,15.08837316,0.0001242,53.2164,326.5038,91.4693,268.6442,0.00019837,2.87e-05,0.0,0 STARLINK-3323,1 50804U 22001B   24120.86068376  .00002870  00000-0  19837-3 0  9993,2 50804  53.2164 326.5038 0001242  91.4693 268.6442 15.08837316128069,6917.889,95.438,540.613,538.894,0.0
50804.0,STARLINK-3323,PAYLOAD,2024-04-30 06:11:41,15.08845462,0.0001237,53.2167,324.7193,90.8497,269.2637,0.00027118,4.031e-05,0.0,0 STARLINK-3323,1 50804U 22001B   24121.25811976  .00004031  00000-0  27118-3 0  9991,2 50804  53.2167 324.7193 0001237  90.8497 269.2637 15.08845462128124,6917.864,95.437,540.584,538.873,0.0
50804.0,STARLINK-3323,PAYLOAD,2024-04-30 20:30:09,15.08841672,0.0001397,53.2182,322.0459,99.015,261.1,-4.8404e-06,-3.65e-06,0.0,0 STARLINK-3323,1 50804U 22001B   24121.85428214 -.00000365  00000-0 -48404-5 0  9997,2 50804  53.2182 322.0459 0001397  99.0150 261.1000 15.08841672128215,6917.875,95.437,540.707,538.774,0.0
50804.0,STARLINK-3323,PAYLOAD,2024-05-01 12:24:01,15.08844264,0.0001559,53.2195,319.0727,90.8645,269.2526,0.00012285,1.668e-05,0.0,0 STARLINK-3323,1 50804U 22001B   24122.51667969  .00001668  00000-0  12285-3 0  9994,2 50804  53.2195 319.0727 0001559  90.8645 269.2526 15.08844264129562,6917.867,95.437,540.811,538.654,0.0
50804.0,STARLINK-3323,PAYLOAD,2024-05-01 23:31:43,15.08839021,0.0001634,53.2189,316.9907,100.2,259.9176,2.0171e-06,-2.56e-06,0.0,0 STARLINK-3323,1 50804U 22001B   24122.98036253 -.00000256  00000-0  20171-5 0  9999,2 50804  53.2189 316.9907 0001634 100.2000 259.9176 15.08839021129636,6917.883,95.438,540.879,538.618,0.0
50804.0,STARLINK-3323,PAYLOAD,2024-05-02 05:53:15,15.08844779,0.000143,53.2194,315.8017,93.6877,266.4279,7.8917e-05,9.68e-06,0.0,0 STARLINK-3323,1 50804U 22001B   24123.24532185  .00000968  00000-0  78917-4 0  9993,2 50804  53.2194 315.8017 0001430  93.6877 266.4279 15.08844779128422,6917.866,95.437,540.72,538.742,0.0
50804.0,STARLINK-3323,PAYLOAD,2024-05-03 12:05:35,15.08835132,0.0001603,53.2149,310.1514,85.6685,274.449,2.2645e-05,7.2e-07,0.0,0 STARLINK-3323,1 50804U 22001B   24124.50388276  .00000072  00000-0  22645-4 0  9996,2 50804  53.2149 310.1514 0001603  85.6685 274.4490 15.08835132129868,6917.895,95.438,540.869,538.651,0.0
50804.0,STARLINK-3323,PAYLOAD,2024-05-03 18:27:08,15.08825202,0.0001274,53.2164,308.9611,88.8056,271.3082,-0.0001201,-2.198e-05,0.0,0 STARLINK-3323,1 50804U 22001B   24124.76884943 -.00002198  00000-0 -12010-3 0  9993,2 50804  53.2164 308.9611 0001274  88.8056 271.3082 15.08825202129904,6917.926,95.438,540.672,538.909,0.0
50804.0,STARLINK-3323,PAYLOAD,2024-05-04 11:56:22,15.08842035,0.0001542,53.2165,305.688,90.1307,269.9861,8.9431e-05,1.136e-05,0.0,0 STARLINK-3323,1 50804U 22001B   24125.49748481  .00001136  00000-0  89431-4 0  9991,2 50804  53.2165 305.6880 0001542  90.1307 269.9861 15.08842035130015,6917.874,95.437,540.806,538.672,0.0
50804.0,STARLINK-3323,PAYLOAD,2024-05-05 14:57:55,15.08852883,0.0001863,53.2159,300.6321,101.6732,258.4469,0.00034764,5.251e-05,0.0,0 STARLINK-3323,1 50804U 22001B   24126.62356158  .00005251  00000-0  34764-3 0  9993,2 50804  53.2159 300.6321 0001863 101.6732 258.4469 15.08852883128936,6917.841,95.437,540.995,538.417,0.0
50804.0,STARLINK-3323,PAYLOAD,2024-05-05 18:08:42,15.08851067,0.0001446,53.2158,300.0375,99.0417,261.0739,0.00043369,6.623e-05,0.0,0 STARLINK-3323,1 50804U 22001B   24126.75604223  .00006623  00000-0  43369-3 0  9991,2 50804  53.2158 300.0375 0001446  99.0417 261.0739 15.08851067130201,6917.847,95.437,540.712,538.711,0.0
50804.0,STARLINK-3323,PAYLOAD,2024-05-06 14:48:42,15.0885196,0.0001429,53.2158,296.1716,98.1368,261.9787,0.00029047,4.339e-05,0.0,0 STARLINK-3323,1 50804U 22001B   24127.61715818  .00004339  00000-0  29047-3 0  9999,2 50804  53.2158 296.1716 0001429  98.1368 261.9787 15.08851960129089,6917.844,95.437,540.697,538.72,0.0
50804.0,STARLINK-3323,PAYLOAD,2024-05-06 17:59:28,15.08850071,0.0001327,53.2155,295.5798,88.3969,271.7175,0.00024886,3.676e-05,0.0,0 STARLINK-3323,1 50804U 22001B   24127.74963856  .00003676  00000-0  24886-3 0  9999,2 50804  53.2155 295.5798 0001327  88.3969 271.7175 15.08850071130358,6917.85,95.437,540.633,538.797,0.0
50804.0,STARLINK-3323,PAYLOAD,2024-05-06 21:10:14,15.0885498,0.0001301,53.2149,294.9844,85.6235,274.4906,0.00024545,3.622e-05,0.0,0 STARLINK-3323,1 50804U 22001B   24127.88211597  .00003622  00000-0  24545-3 0  9995,2 50804  53.2149 294.9844 0001301  85.6235 274.4906 15.08854980129122,6917.835,95.437,540.6,538.8,0.0
50804.0,STARLINK-3323,PAYLOAD,2024-05-07 11:28:43,15.08840817,0.0001455,53.2162,292.306,106.3116,253.8037,0.0001054,1.39e-05,0.0,0 STARLINK-3323,1 50804U 22001B   24128.47828122  .00001390  00000-0  10540-3 0  9999,2 50804  53.2162 292.3060 0001455 106.3116 253.8037 15.08840817130467,6917.878,95.438,540.749,538.736,0.0
50804.0,STARLINK-3323,PAYLOAD,2024-05-07 14:39:30,15.08826601,0.0001219,53.2159,291.7111,98.7264,261.3867,-0.00017015,-2.994e-05,0.0,0 STARLINK-3323,1 50804U 22001B   24128.61076635 -.00002994  00000-0 -17015-3 0  9996,2 50804  53.2159 291.7111 0001219  98.7264 261.3867 15.08826601129232,6917.921,95.438,540.63,538.943,0.0
50804.0,STARLINK-3323,PAYLOAD,2024-05-07 17:50:16,15.08830289,0.000123,53.216,291.1167,102.3154,257.7976,-7.7755e-05,-1.525e-05,0.0,0 STARLINK-3323,1 50804U 22001B   24128.74324645 -.00001525  00000-0 -77755-4 0  9994,2 50804  53.2160 291.1167 0001230 102.3154 257.7976 15.08830289130501,6917.91,95.438,540.626,538.924,0.0
50804.0,STARLINK-3323,PAYLOAD,2024-05-08 14:30:17,15.08841807,0.0001197,53.2164,287.2497,96.1845,263.9283,0.00020787,3.022e-05,0.0,0 STARLINK-3323,1 50804U 22001B   24129.60436585  .00003022  00000-0  20787-3 0  9991,2 50804  53.2164 287.2497 0001197  96.1845 263.9283 15.08841807129388,6917.875,95.437,540.568,538.912,0.0
50804.0,STARLINK-3323,PAYLOAD,2024-05-08 17:41:03,15.08848721,0.0001213,53.2161,286.6564,101.9509,258.1619,0.00047767,7.324e-05,0.0,0 STARLINK-3323,1 50804U 22001B   24129.73684486  .00007324  00000-0  47767-3 0  9996,2 50804  53.2161 286.6564 0001213 101.9509 258.1619 15.08848721130657,6917.854,95.437,540.558,538.88,0.0
50804.0,STARLINK-3323,PAYLOAD,2024-05-09 03:13:21,15.088664,0.0001085,53.2162,284.8688,64.6266,295.4838,0.0010228,0.00016039,0.0,0 STARLINK-3323,1 50804U 22001B   24130.13427961  .00016039  00000-0  10228-2 0  9999,2 50804  53.2162 284.8688 0001085  64.6266 295.4838 15.08866400130715,6917.8,95.436,540.415,538.914,0.0
50804.0,STARLINK-3323,PAYLOAD,2024-05-09 14:21:04,15.08843906,0.0001216,53.2169,282.7914,87.5152,272.598,0.00017824,2.55e-05,0.0,0 STARLINK-3323,1 50804U 22001B   24130.59796460  .00002550  00000-0  17824-3 0  9995,2 50804  53.2169 282.7914 0001216  87.5152 272.5980 15.08843906129533,6917.868,95.437,540.575,538.892,0.0
50804.0,STARLINK-3323,PAYLOAD,2024-05-09 15:56:27,15.08845589,0.0001318,53.2172,282.4943,83.5777,276.5365,0.00024398,3.598e-05,0.0,0 STARLINK-3323,1 50804U 22001B   24130.66420341  .00003598  00000-0  24398-3 0  9992,2 50804  53.2172 282.4943 0001318  83.5777 276.5365 15.08845589130798,6917.863,95.437,540.64,538.817,0.0
50804.0,STARLINK-3323,PAYLOAD,2024-05-10 03:04:09,15.08856123,0.0001341,53.217,280.4127,82.2565,277.8579,0.0011173,0.00017546,0.0,0 STARLINK-3323,1 50804U 22001B   24131.12788251  .00017546  00000-0  11173-2 0  9995,2 50804  53.2170 280.4127 0001341  82.2565 277.8579 15.08856123130860,6917.831,95.437,540.624,538.768,0.0
50804.0,STARLINK-3323,PAYLOAD,2024-05-10 14:11:51,15.08840139,8.93e-05,53.2168,278.3295,85.877,274.2325,0.00094955,0.00014856,0.0,0 STARLINK-3323,1 50804U 22001B   24131.59156537  .00014856  00000-0  94955-3 0  9993,2 50804  53.2168 278.3295 0000893  85.8770 274.2325 15.08840139129685,6917.88,95.438,540.363,539.127,0.0
